{
  "type": "FeatureCollection",
  "features": [
    {
      "type": "Feature",
      "properties": {
        "norad_id": 44709,
        "name": "BEIDOU-3 IGSO-3 (C40)",
        "group": "gnss",
        "lat": 50.17348745844287,
        "lon": 46.42070504286755,
        "alt_km": 35757.154464689775,
        "timestamp": "2025-12-02T13:52:17.505679+00:00",
        "meta_object_name": "BEIDOU-3 IGSO-3 (C40)",
        "meta_object_id": "2019-073A",
        "meta_epoch": "2025-11-20T07:11:22.740000",
        "meta_mean_motion": 1.00250097,
        "meta_eccentricity": 0.0044538,
        "meta_inclination": 55.163,
        "meta_ra_of_asc_node": 283.159,
        "meta_arg_of_pericenter": 191.5856,
        "meta_mean_anomaly": 168.2409,
        "meta_ephemeris_type": 0,
        "meta_classification_type": "U",
        "meta_norad_cat_id": 44709,
        "meta_element_set_no": 999,
        "meta_rev_at_epoch": 2236,
        "meta_bstar": 0,
        "meta_mean_motion_dot": -2.06e-06,
        "meta_mean_motion_ddot": 0,
        "tle_line1": "1 44709U 19073A   25324.29956875 -.00000206  00000+0  00000+0 0  9998",
        "tle_line2": "2 44709  55.1630 283.1590 0044538 191.5856 168.2409  1.00250097 22360"
      },
      "geometry": {
        "type": "Point",
        "coordinates": [
          46.42070504286755,
          50.17348745844287
        ]
      }
    },
    {
      "type": "Feature",
      "properties": {
        "norad_id": 44793,
        "name": "BEIDOU-3 M22 (C44)",
        "group": "gnss",
        "lat": 11.331995765781599,
        "lon": -44.93887383981579,
        "alt_km": 21511.21446238643,
        "timestamp": "2025-12-02T13:52:17.505702+00:00",
        "meta_object_name": "BEIDOU-3 M22 (C44)",
        "meta_object_id": "2019-078A",
        "meta_epoch": "2025-12-02T00:28:58.554624",
        "meta_mean_motion": 1.86231817,
        "meta_eccentricity": 0.00056333,
        "meta_inclination": 54.1183,
        "meta_ra_of_asc_node": 306.7625,
        "meta_arg_of_pericenter": 22.616,
        "meta_mean_anomaly": 337.398,
        "meta_ephemeris_type": 0,
        "meta_classification_type": "U",
        "meta_norad_cat_id": 44793,
        "meta_element_set_no": 999,
        "meta_rev_at_epoch": 4097,
        "meta_bstar": 0,
        "meta_mean_motion_dot": -6.1e-07,
        "meta_mean_motion_ddot": 0,
        "tle_line1": "1 44793U 19078A   25336.02012216 -.00000061  00000+0  00000+0 0  9991",
        "tle_line2": "2 44793  54.1183 306.7625 0005633  22.6160 337.3980  1.86231817 40974"
      },
      "geometry": {
        "type": "Point",
        "coordinates": [
          -44.93887383981579,
          11.331995765781599
        ]
      }
    },
    {
      "type": "Feature",
      "properties": {
        "norad_id": 44794,
        "name": "BEIDOU-3 M21 (C43)",
        "group": "gnss",
        "lat": -52.42835806448166,
        "lon": -123.61955398361857,
        "alt_km": 21533.7449323718,
        "timestamp": "2025-12-02T13:52:17.505720+00:00",
        "meta_object_name": "BEIDOU-3 M21 (C43)",
        "meta_object_id": "2019-078B",
        "meta_epoch": "2025-12-01T02:00:26.030304",
        "meta_mean_motion": 1.86227539,
        "meta_eccentricity": 0.00038706,
        "meta_inclination": 54.0922,
        "meta_ra_of_asc_node": 306.7607,
        "meta_arg_of_pericenter": 10.0971,
        "meta_mean_anomaly": 349.9036,
        "meta_ephemeris_type": 0,
        "meta_classification_type": "U",
        "meta_norad_cat_id": 44794,
        "meta_element_set_no": 999,
        "meta_rev_at_epoch": 4096,
        "meta_bstar": 0,
        "meta_mean_motion_dot": -5.7e-07,
        "meta_mean_motion_ddot": 0,
        "tle_line1": "1 44794U 19078B   25335.08363461 -.00000057  00000+0  00000+0 0  9993",
        "tle_line2": "2 44794  54.0922 306.7607 0003870  10.0971 349.9036  1.86227539 40963"
      },
      "geometry": {
        "type": "Point",
        "coordinates": [
          -123.61955398361857,
          -52.42835806448166
        ]
      }
    },
    {
      "type": "Feature",
      "properties": {
        "norad_id": 44850,
        "name": "COSMOS 2544 (759)",
        "group": "gnss",
        "lat": 44.50549227501883,
        "lon": -126.35158947945997,
        "alt_km": 19141.716123494938,
        "timestamp": "2025-12-02T13:52:17.505740+00:00",
        "meta_object_name": "COSMOS 2544 (759)",
        "meta_object_id": "2019-088A",
        "meta_epoch": "2025-12-01T22:32:51.228384",
        "meta_mean_motion": 2.13101823,
        "meta_eccentricity": 0.00136626,
        "meta_inclination": 65.4542,
        "meta_ra_of_asc_node": 80.3197,
        "meta_arg_of_pericenter": 248.783,
        "meta_mean_anomaly": 111.0683,
        "meta_ephemeris_type": 0,
        "meta_classification_type": "U",
        "meta_norad_cat_id": 44850,
        "meta_element_set_no": 999,
        "meta_rev_at_epoch": 4651,
        "meta_bstar": 0,
        "meta_mean_motion_dot": -1.6e-07,
        "meta_mean_motion_ddot": 0,
        "tle_line1": "1 44850U 19088A   25335.93948181 -.00000016  00000+0  00000+0 0  9994",
        "tle_line2": "2 44850  65.4542  80.3197 0013662 248.7830 111.0683  2.13101823 46514"
      },
      "geometry": {
        "type": "Point",
        "coordinates": [
          -126.35158947945997,
          44.50549227501883
        ]
      }
    },
    {
      "type": "Feature",
      "properties": {
        "norad_id": 44864,
        "name": "BEIDOU-3 M19 (C41)",
        "group": "gnss",
        "lat": 47.6188334577129,
        "lon": -157.41521063164396,
        "alt_km": 21569.98526271659,
        "timestamp": "2025-12-02T13:52:17.505757+00:00",
        "meta_object_name": "BEIDOU-3 M19 (C41)",
        "meta_object_id": "2019-090A",
        "meta_epoch": "2025-12-01T20:54:26.017344",
        "meta_mean_motion": 1.86231094,
        "meta_eccentricity": 0.00175122,
        "meta_inclination": 56.3837,
        "meta_ra_of_asc_node": 69.3227,
        "meta_arg_of_pericenter": 284.7988,
        "meta_mean_anomaly": 78.8343,
        "meta_ephemeris_type": 0,
        "meta_classification_type": "U",
        "meta_norad_cat_id": 44864,
        "meta_element_set_no": 999,
        "meta_rev_at_epoch": 4056,
        "meta_bstar": 0,
        "meta_mean_motion_dot": -4.4e-07,
        "meta_mean_motion_ddot": 0,
        "tle_line1": "1 44864U 19090A   25335.87113446 -.00000044  00000+0  00000+0 0  9994",
        "tle_line2": "2 44864  56.3837  69.3227 0017512 284.7988  78.8343  1.86231094 40563"
      },
      "geometry": {
        "type": "Point",
        "coordinates": [
          -157.41521063164396,
          47.6188334577129
        ]
      }
    },
    {
      "type": "Feature",
      "properties": {
        "norad_id": 44865,
        "name": "BEIDOU-3 M20 (C42)",
        "group": "gnss",
        "lat": -22.244061782081854,
        "lon": -94.90468657885978,
        "alt_km": 21531.50628133474,
        "timestamp": "2025-12-02T13:52:17.505774+00:00",
        "meta_object_name": "BEIDOU-3 M20 (C42)",
        "meta_object_id": "2019-090B",
        "meta_epoch": "2025-12-02T06:29:14.465184",
        "meta_mean_motion": 1.86231065,
        "meta_eccentricity": 0.00146515,
        "meta_inclination": 56.3856,
        "meta_ra_of_asc_node": 69.3436,
        "meta_arg_of_pericenter": 297.6266,
        "meta_mean_anomaly": 63.245,
        "meta_ephemeris_type": 0,
        "meta_classification_type": "U",
        "meta_norad_cat_id": 44865,
        "meta_element_set_no": 999,
        "meta_rev_at_epoch": 4055,
        "meta_bstar": 0,
        "meta_mean_motion_dot": -4.6e-07,
        "meta_mean_motion_ddot": 0,
        "tle_line1": "1 44865U 19090B   25336.27030631 -.00000046  00000+0  00000+0 0  9996",
        "tle_line2": "2 44865  56.3856  69.3436 0014651 297.6266  63.2450  1.86231065 40554"
      },
      "geometry": {
        "type": "Point",
        "coordinates": [
          -94.90468657885978,
          -22.244061782081854
        ]
      }
    },
    {
      "type": "Feature",
      "properties": {
        "norad_id": 45344,
        "name": "BEIDOU-3 G2 (C60)",
        "group": "gnss",
        "lat": -2.0434198131454226,
        "lon": -0.13442610921421558,
        "alt_km": 35775.16693222171,
        "timestamp": "2025-12-02T13:52:17.505792+00:00",
        "meta_object_name": "BEIDOU-3 G2 (C60)",
        "meta_object_id": "2020-017A",
        "meta_epoch": "2025-12-02T07:19:02.196192",
        "meta_mean_motion": 1.00270455,
        "meta_eccentricity": 0.00045319,
        "meta_inclination": 2.9802,
        "meta_ra_of_asc_node": 43.5427,
        "meta_arg_of_pericenter": 263.878,
        "meta_mean_anomaly": 313.808,
        "meta_ephemeris_type": 0,
        "meta_classification_type": "U",
        "meta_norad_cat_id": 45344,
        "meta_element_set_no": 999,
        "meta_rev_at_epoch": 2128,
        "meta_bstar": 0,
        "meta_mean_motion_dot": -1.22e-06,
        "meta_mean_motion_ddot": 0,
        "tle_line1": "1 45344U 20017A   25336.30488653 -.00000122  00000+0  00000+0 0  9990",
        "tle_line2": "2 45344   2.9802  43.5427 0004531 263.8780 313.8080  1.00270455 21285"
      },
      "geometry": {
        "type": "Point",
        "coordinates": [
          -0.13442610921421558,
          -2.0434198131454226
        ]
      }
    }
  ]
}